{
  "updatedAt": "2026-03-20T16:26:01.420Z",
  "entries": {
    "gyeonggisat-1-66771": {
      "fetchedAt": "2026-03-20T16:26:01.420Z",
      "fleetEntry": {
        "id": "gyeonggisat-1-66771",
        "name": "GYEONGGISAT-1",
        "englishName": "GYEONGGISAT-1",
        "domesticName": "GYEONGGISAT-1",
        "color": "#7bdff2",
        "norad": "66771",
        "orbitClass": "leo",
        "orbitLabel": "LEO SSO",
        "missionType": "earth-observation",
        "missionLabel": "지구관측",
        "operationalStatus": "비현역",
        "objectId": "2025-276DK",
        "launchDate": "2025-11-28",
        "sourceDate": "2026-03-20",
        "sourceLabel": "Space-Track cached GP",
        "omm": {
          "CCSDS_OMM_VERS": "3.0",
          "COMMENT": "GENERATED VIA SPACE-TRACK.ORG API",
          "CREATION_DATE": "2026-03-20T10:06:47",
          "ORIGINATOR": "18 SPCS",
          "OBJECT_NAME": "GYEONGGISAT-1",
          "OBJECT_ID": "2025-276DK",
          "CENTER_NAME": "EARTH",
          "REF_FRAME": "TEME",
          "TIME_SYSTEM": "UTC",
          "MEAN_ELEMENT_THEORY": "SGP4",
          "EPOCH": "2026-03-20T03:43:17.755968",
          "MEAN_MOTION": 15.19702328,
          "ECCENTRICITY": 0.00022468,
          "INCLINATION": 97.4292,
          "RA_OF_ASC_NODE": 154.4372,
          "ARG_OF_PERICENTER": 145.6509,
          "MEAN_ANOMALY": 214.4871,
          "EPHEMERIS_TYPE": 0,
          "CLASSIFICATION_TYPE": "U",
          "NORAD_CAT_ID": 66771,
          "ELEMENT_SET_NO": 999,
          "REV_AT_EPOCH": 1691,
          "BSTAR": 0.00023600539,
          "MEAN_MOTION_DOT": 0.00004972,
          "MEAN_MOTION_DDOT": 0,
          "SEMIMAJOR_AXIS": "6884.877",
          "PERIOD": "94.755",
          "APOAPSIS": "508.288",
          "PERIAPSIS": "505.195",
          "OBJECT_TYPE": "PAYLOAD",
          "RCS_SIZE": null,
          "COUNTRY_CODE": "SKOR",
          "LAUNCH_DATE": "2025-11-28",
          "SITE": "AFWTR",
          "DECAY_DATE": null,
          "FILE": "5093077",
          "GP_ID": "316561126",
          "TLE_LINE0": "0 GYEONGGISAT-1",
          "TLE_LINE1": "1 66771U 25276DK  26079.15506662  .00004972  00000-0  23601-3 0  9991",
          "TLE_LINE2": "2 66771  97.4292 154.4372 0002247 145.6509 214.4871 15.19702328 16915"
        }
      }
    },
    "neonsat-1a-67614": {
      "fetchedAt": "2026-03-20T16:26:01.420Z",
      "fleetEntry": {
        "id": "neonsat-1a-67614",
        "name": "NEONSAT-1A",
        "englishName": "NEONSAT-1A",
        "domesticName": "NEONSAT-1A",
        "color": "#ffd166",
        "norad": "67614",
        "orbitClass": "leo",
        "orbitLabel": "LEO SSO",
        "missionType": "earth-observation",
        "missionLabel": "지구관측",
        "operationalStatus": "비현역",
        "objectId": "2026-019A",
        "launchDate": "2026-01-30",
        "sourceDate": "2026-03-20",
        "sourceLabel": "Space-Track cached GP",
        "omm": {
          "CCSDS_OMM_VERS": "3.0",
          "COMMENT": "GENERATED VIA SPACE-TRACK.ORG API",
          "CREATION_DATE": "2026-03-20T14:26:40",
          "ORIGINATOR": "18 SPCS",
          "OBJECT_NAME": "NEONSAT-1A",
          "OBJECT_ID": "2026-019A",
          "CENTER_NAME": "EARTH",
          "REF_FRAME": "TEME",
          "TIME_SYSTEM": "UTC",
          "MEAN_ELEMENT_THEORY": "SGP4",
          "EPOCH": "2026-03-20T07:56:35.383776",
          "MEAN_MOTION": 15.07884051,
          "ECCENTRICITY": 0.0014554,
          "INCLINATION": 97.4137,
          "RA_OF_ASC_NODE": 202.5305,
          "ARG_OF_PERICENTER": 133.3983,
          "MEAN_ANOMALY": 226.846,
          "EPHEMERIS_TYPE": 0,
          "CLASSIFICATION_TYPE": "U",
          "NORAD_CAT_ID": 67614,
          "ELEMENT_SET_NO": 999,
          "REV_AT_EPOCH": 742,
          "BSTAR": 0.00017562,
          "MEAN_MOTION_DOT": 0.00002638,
          "MEAN_MOTION_DDOT": 0,
          "SEMIMAJOR_AXIS": "6920.804",
          "PERIOD": "95.498",
          "APOAPSIS": "552.741",
          "PERIAPSIS": "532.596",
          "OBJECT_TYPE": "PAYLOAD",
          "RCS_SIZE": null,
          "COUNTRY_CODE": "SKOR",
          "LAUNCH_DATE": "2026-01-30",
          "SITE": "RLLC",
          "DECAY_DATE": null,
          "FILE": "5093156",
          "GP_ID": "316565414",
          "TLE_LINE0": "0 NEONSAT-1A",
          "TLE_LINE1": "1 67614U 26019A   26079.33096509  .00002638  00000-0  17562-3 0  9994",
          "TLE_LINE2": "2 67614  97.4137 202.5305 0014554 133.3983 226.8460 15.07884051  7423"
        }
      }
    }
  }
}